{
  "norad_id": 44231,
  "name": "BEIDOU-2 G8",
  "history": [
    {
      "epoch": "2026-04-30T14:04:59.079360Z",
      "apogee_km": 35834.06735101445,
      "perigee_km": 35741.47691778259,
      "latitude_deg": 0.9783183757972057,
      "longitude_deg": 144.38357906980835,
      "height_km": 35823.55837969689,
      "semi_major_axis_km": 42165.90913439852,
      "eccentricity": 0.00109793,
      "inclination_deg": 1.5394,
      "raan_deg": 74.3906,
      "arg_perigee_deg": 281.311,
      "mean_anomaly_deg": 218.5281,
      "mean_motion_rev_day": 1.00267586
    },
    {
      "epoch": "2026-05-02T13:48:49.878720Z",
      "apogee_km": 35833.86210006852,
      "perigee_km": 35741.914864901424,
      "latitude_deg": 1.020442291582205,
      "longitude_deg": 144.35804135534292,
      "height_km": 35824.957016528126,
      "semi_major_axis_km": 42166.025482484976,
      "eccentricity": 0.0010903,
      "inclination_deg": 1.5441,
      "raan_deg": 74.4001,
      "arg_perigee_deg": 282.4678,
      "mean_anomaly_deg": 215.2546,
      "mean_motion_rev_day": 1.00267171
    },
    {
      "epoch": "2026-05-03T10:31:55.388928Z",
      "apogee_km": 35833.71389501057,
      "perigee_km": 35742.141009518295,
      "latitude_deg": 1.52475799770897,
      "longitude_deg": 144.4346996327791,
      "height_km": 35831.68084438262,
      "semi_major_axis_km": 42166.064452264436,
      "eccentricity": 0.00108586,
      "inclination_deg": 1.546,
      "raan_deg": 74.4054,
      "arg_perigee_deg": 282.8552,
      "mean_anomaly_deg": 166.4724,
      "mean_motion_rev_day": 1.00267032
    },
    {
      "epoch": "2026-05-04T15:37:25.549824Z",
      "apogee_km": 35832.84417673782,
      "perigee_km": 35737.774038454416,
      "latitude_deg": 0.3399377670539083,
      "longitude_deg": 144.3159767873513,
      "height_km": 35804.456945560065,
      "semi_major_axis_km": 42163.44610759612,
      "eccentricity": 0.0011274,
      "inclination_deg": 1.5488,
      "raan_deg": 74.4084,
      "arg_perigee_deg": 281.0782,
      "mean_anomaly_deg": 245.8406,
      "mean_motion_rev_day": 1.00276372
    }
  ]
}